KUIPER-00079            
1 64826U 25151L   25338.47546272  .00008464  00000+0  11293-2 0  9997
2 64826  51.8994   1.6074 0011554 286.2754  73.6937 14.80218716 22403
KUIPER-00080            
1 64827U 25151M   25339.31955676  .00012851  00000+0  17114-2 0  9997
2 64827  51.9002 357.8784 0006568 291.7187  68.3075 14.79925686 21333
KUIPER-00082            
1 64828U 25151N   25339.29919682  .00009899  00000+0  13351-2 0  9999
2 64828  51.9020 345.4807 0004876 325.2176  34.8467 14.79625844 21509
KUIPER-00083            
1 64829U 25151P   25339.29103000  .00002737  00000+0  38762-3 0  9997
2 64829  51.9031 353.0141 0011305 292.7774  67.1993 14.79960292 22586
KUIPER-00084            
1 64830U 25151Q   25339.28031436  .00009371  00000+0  12544-2 0  9991
2 64830  51.9014   3.0478 0011640 262.6226  97.3414 14.79965763 21258
KUIPER-00085            
1 64831U 25151R   25339.26544871  .00009328  00000+0  12486-2 0  9999
2 64831  51.9048 345.6452 0007161 302.8200  57.2072 14.79997915 21490
KUIPER-00086            
1 64832U 25151S   25339.32212494  .00007859  00000+0  10570-2 0  9999
2 64832  51.9018 355.3819 0010914 288.2774  71.7000 14.79975752 21369
KUIPER-00087            
1 64833U 25151T   25339.27351666  .00007171  00000+0  96792-3 0  9997
2 64833  51.8997 338.0921 0000872 356.5984   3.4972 14.79962767 21598
