<?xml version="1.0" encoding="UTF-8"?>
<ndm xmlns:xsi="http://www.w3.org/2001/XMLSchema-instance" xsi:noNamespaceSchemaLocation="https://sanaregistry.org/r/ndmxml_unqualified/ndmxml-2.0.0-master-2.0.xsd">
<omm id="CCSDS_OMM_VERS" version="2.0">
<header><CREATION_DATE/><ORIGINATOR/></header><body><segment><metadata><OBJECT_NAME>KUIPER-00079</OBJECT_NAME><OBJECT_ID>2025-151L</OBJECT_ID><CENTER_NAME>EARTH</CENTER_NAME><REF_FRAME>TEME</REF_FRAME><TIME_SYSTEM>UTC</TIME_SYSTEM><MEAN_ELEMENT_THEORY>SGP4</MEAN_ELEMENT_THEORY></metadata><data><meanElements><EPOCH>2025-12-04T11:24:39.979008</EPOCH><MEAN_MOTION>14.80218716</MEAN_MOTION><ECCENTRICITY>.0011554</ECCENTRICITY><INCLINATION>51.8994</INCLINATION><RA_OF_ASC_NODE>1.6074</RA_OF_ASC_NODE><ARG_OF_PERICENTER>286.2754</ARG_OF_PERICENTER><MEAN_ANOMALY>73.6937</MEAN_ANOMALY></meanElements><tleParameters><EPHEMERIS_TYPE>0</EPHEMERIS_TYPE><CLASSIFICATION_TYPE>U</CLASSIFICATION_TYPE><NORAD_CAT_ID>64826</NORAD_CAT_ID><ELEMENT_SET_NO>999</ELEMENT_SET_NO><REV_AT_EPOCH>2240</REV_AT_EPOCH><BSTAR>.11293E-2</BSTAR><MEAN_MOTION_DOT>.8464E-4</MEAN_MOTION_DOT><MEAN_MOTION_DDOT>0</MEAN_MOTION_DDOT></tleParameters></data></segment></body></omm>
<omm id="CCSDS_OMM_VERS" version="2.0">
<header><CREATION_DATE/><ORIGINATOR/></header><body><segment><metadata><OBJECT_NAME>KUIPER-00080</OBJECT_NAME><OBJECT_ID>2025-151M</OBJECT_ID><CENTER_NAME>EARTH</CENTER_NAME><REF_FRAME>TEME</REF_FRAME><TIME_SYSTEM>UTC</TIME_SYSTEM><MEAN_ELEMENT_THEORY>SGP4</MEAN_ELEMENT_THEORY></metadata><data><meanElements><EPOCH>2025-12-05T07:40:09.704064</EPOCH><MEAN_MOTION>14.79925686</MEAN_MOTION><ECCENTRICITY>.0006568</ECCENTRICITY><INCLINATION>51.9002</INCLINATION><RA_OF_ASC_NODE>357.8784</RA_OF_ASC_NODE><ARG_OF_PERICENTER>291.7187</ARG_OF_PERICENTER><MEAN_ANOMALY>68.3075</MEAN_ANOMALY></meanElements><tleParameters><EPHEMERIS_TYPE>0</EPHEMERIS_TYPE><CLASSIFICATION_TYPE>U</CLASSIFICATION_TYPE><NORAD_CAT_ID>64827</NORAD_CAT_ID><ELEMENT_SET_NO>999</ELEMENT_SET_NO><REV_AT_EPOCH>2133</REV_AT_EPOCH><BSTAR>.17113885E-2</BSTAR><MEAN_MOTION_DOT>.12851E-3</MEAN_MOTION_DOT><MEAN_MOTION_DDOT>0</MEAN_MOTION_DDOT></tleParameters></data></segment></body></omm>
<omm id="CCSDS_OMM_VERS" version="2.0">
<header><CREATION_DATE/><ORIGINATOR/></header><body><segment><metadata><OBJECT_NAME>KUIPER-00082</OBJECT_NAME><OBJECT_ID>2025-151N</OBJECT_ID><CENTER_NAME>EARTH</CENTER_NAME><REF_FRAME>TEME</REF_FRAME><TIME_SYSTEM>UTC</TIME_SYSTEM><MEAN_ELEMENT_THEORY>SGP4</MEAN_ELEMENT_THEORY></metadata><data><meanElements><EPOCH>2025-12-05T07:10:50.605248</EPOCH><MEAN_MOTION>14.79625844</MEAN_MOTION><ECCENTRICITY>.00048764</ECCENTRICITY><INCLINATION>51.9020</INCLINATION><RA_OF_ASC_NODE>345.4807</RA_OF_ASC_NODE><ARG_OF_PERICENTER>325.2176</ARG_OF_PERICENTER><MEAN_ANOMALY>34.8467</MEAN_ANOMALY></meanElements><tleParameters><EPHEMERIS_TYPE>0</EPHEMERIS_TYPE><CLASSIFICATION_TYPE>U</CLASSIFICATION_TYPE><NORAD_CAT_ID>64828</NORAD_CAT_ID><ELEMENT_SET_NO>999</ELEMENT_SET_NO><REV_AT_EPOCH>2150</REV_AT_EPOCH><BSTAR>.13350646E-2</BSTAR><MEAN_MOTION_DOT>.9899E-4</MEAN_MOTION_DOT><MEAN_MOTION_DDOT>0</MEAN_MOTION_DDOT></tleParameters></data></segment></body></omm>
<omm id="CCSDS_OMM_VERS" version="2.0">
<header><CREATION_DATE/><ORIGINATOR/></header><body><segment><metadata><OBJECT_NAME>KUIPER-00083</OBJECT_NAME><OBJECT_ID>2025-151P</OBJECT_ID><CENTER_NAME>EARTH</CENTER_NAME><REF_FRAME>TEME</REF_FRAME><TIME_SYSTEM>UTC</TIME_SYSTEM><MEAN_ELEMENT_THEORY>SGP4</MEAN_ELEMENT_THEORY></metadata><data><meanElements><EPOCH>2025-12-05T06:59:04.992000</EPOCH><MEAN_MOTION>14.79960292</MEAN_MOTION><ECCENTRICITY>.00113056</ECCENTRICITY><INCLINATION>51.9031</INCLINATION><RA_OF_ASC_NODE>353.0141</RA_OF_ASC_NODE><ARG_OF_PERICENTER>292.7774</ARG_OF_PERICENTER><MEAN_ANOMALY>67.1993</MEAN_ANOMALY></meanElements><tleParameters><EPHEMERIS_TYPE>0</EPHEMERIS_TYPE><CLASSIFICATION_TYPE>U</CLASSIFICATION_TYPE><NORAD_CAT_ID>64829</NORAD_CAT_ID><ELEMENT_SET_NO>999</ELEMENT_SET_NO><REV_AT_EPOCH>2258</REV_AT_EPOCH><BSTAR>.38761778E-3</BSTAR><MEAN_MOTION_DOT>.2737E-4</MEAN_MOTION_DOT><MEAN_MOTION_DDOT>0</MEAN_MOTION_DDOT></tleParameters></data></segment></body></omm>
<omm id="CCSDS_OMM_VERS" version="2.0">
<header><CREATION_DATE/><ORIGINATOR/></header><body><segment><metadata><OBJECT_NAME>KUIPER-00084</OBJECT_NAME><OBJECT_ID>2025-151Q</OBJECT_ID><CENTER_NAME>EARTH</CENTER_NAME><REF_FRAME>TEME</REF_FRAME><TIME_SYSTEM>UTC</TIME_SYSTEM><MEAN_ELEMENT_THEORY>SGP4</MEAN_ELEMENT_THEORY></metadata><data><meanElements><EPOCH>2025-12-05T06:43:39.160704</EPOCH><MEAN_MOTION>14.79965763</MEAN_MOTION><ECCENTRICITY>.00116406</ECCENTRICITY><INCLINATION>51.9014</INCLINATION><RA_OF_ASC_NODE>3.0478</RA_OF_ASC_NODE><ARG_OF_PERICENTER>262.6226</ARG_OF_PERICENTER><MEAN_ANOMALY>97.3414</MEAN_ANOMALY></meanElements><tleParameters><EPHEMERIS_TYPE>0</EPHEMERIS_TYPE><CLASSIFICATION_TYPE>U</CLASSIFICATION_TYPE><NORAD_CAT_ID>64830</NORAD_CAT_ID><ELEMENT_SET_NO>999</ELEMENT_SET_NO><REV_AT_EPOCH>2125</REV_AT_EPOCH><BSTAR>.12544411E-2</BSTAR><MEAN_MOTION_DOT>.9371E-4</MEAN_MOTION_DOT><MEAN_MOTION_DDOT>0</MEAN_MOTION_DDOT></tleParameters></data></segment></body></omm>
<omm id="CCSDS_OMM_VERS" version="2.0">
<header><CREATION_DATE/><ORIGINATOR/></header><body><segment><metadata><OBJECT_NAME>KUIPER-00085</OBJECT_NAME><OBJECT_ID>2025-151R</OBJECT_ID><CENTER_NAME>EARTH</CENTER_NAME><REF_FRAME>TEME</REF_FRAME><TIME_SYSTEM>UTC</TIME_SYSTEM><MEAN_ELEMENT_THEORY>SGP4</MEAN_ELEMENT_THEORY></metadata><data><meanElements><EPOCH>2025-12-05T06:22:14.768544</EPOCH><MEAN_MOTION>14.79997915</MEAN_MOTION><ECCENTRICITY>.00071615</ECCENTRICITY><INCLINATION>51.9048</INCLINATION><RA_OF_ASC_NODE>345.6452</RA_OF_ASC_NODE><ARG_OF_PERICENTER>302.8200</ARG_OF_PERICENTER><MEAN_ANOMALY>57.2072</MEAN_ANOMALY></meanElements><tleParameters><EPHEMERIS_TYPE>0</EPHEMERIS_TYPE><CLASSIFICATION_TYPE>U</CLASSIFICATION_TYPE><NORAD_CAT_ID>64831</NORAD_CAT_ID><ELEMENT_SET_NO>999</ELEMENT_SET_NO><REV_AT_EPOCH>2149</REV_AT_EPOCH><BSTAR>.12486204E-2</BSTAR><MEAN_MOTION_DOT>.9328E-4</MEAN_MOTION_DOT><MEAN_MOTION_DDOT>0</MEAN_MOTION_DDOT></tleParameters></data></segment></body></omm>
<omm id="CCSDS_OMM_VERS" version="2.0">
<header><CREATION_DATE/><ORIGINATOR/></header><body><segment><metadata><OBJECT_NAME>KUIPER-00086</OBJECT_NAME><OBJECT_ID>2025-151S</OBJECT_ID><CENTER_NAME>EARTH</CENTER_NAME><REF_FRAME>TEME</REF_FRAME><TIME_SYSTEM>UTC</TIME_SYSTEM><MEAN_ELEMENT_THEORY>SGP4</MEAN_ELEMENT_THEORY></metadata><data><meanElements><EPOCH>2025-12-05T07:43:51.594816</EPOCH><MEAN_MOTION>14.79975752</MEAN_MOTION><ECCENTRICITY>.00109149</ECCENTRICITY><INCLINATION>51.9018</INCLINATION><RA_OF_ASC_NODE>355.3819</RA_OF_ASC_NODE><ARG_OF_PERICENTER>288.2774</ARG_OF_PERICENTER><MEAN_ANOMALY>71.7000</MEAN_ANOMALY></meanElements><tleParameters><EPHEMERIS_TYPE>0</EPHEMERIS_TYPE><CLASSIFICATION_TYPE>U</CLASSIFICATION_TYPE><NORAD_CAT_ID>64832</NORAD_CAT_ID><ELEMENT_SET_NO>999</ELEMENT_SET_NO><REV_AT_EPOCH>2136</REV_AT_EPOCH><BSTAR>.10569611E-2</BSTAR><MEAN_MOTION_DOT>.7859E-4</MEAN_MOTION_DOT><MEAN_MOTION_DDOT>0</MEAN_MOTION_DDOT></tleParameters></data></segment></body></omm>
<omm id="CCSDS_OMM_VERS" version="2.0">
<header><CREATION_DATE/><ORIGINATOR/></header><body><segment><metadata><OBJECT_NAME>KUIPER-00087</OBJECT_NAME><OBJECT_ID>2025-151T</OBJECT_ID><CENTER_NAME>EARTH</CENTER_NAME><REF_FRAME>TEME</REF_FRAME><TIME_SYSTEM>UTC</TIME_SYSTEM><MEAN_ELEMENT_THEORY>SGP4</MEAN_ELEMENT_THEORY></metadata><data><meanElements><EPOCH>2025-12-05T06:33:51.839424</EPOCH><MEAN_MOTION>14.79962767</MEAN_MOTION><ECCENTRICITY>.0000872</ECCENTRICITY><INCLINATION>51.8997</INCLINATION><RA_OF_ASC_NODE>338.0921</RA_OF_ASC_NODE><ARG_OF_PERICENTER>356.5984</ARG_OF_PERICENTER><MEAN_ANOMALY>3.4972</MEAN_ANOMALY></meanElements><tleParameters><EPHEMERIS_TYPE>0</EPHEMERIS_TYPE><CLASSIFICATION_TYPE>U</CLASSIFICATION_TYPE><NORAD_CAT_ID>64833</NORAD_CAT_ID><ELEMENT_SET_NO>999</ELEMENT_SET_NO><REV_AT_EPOCH>2159</REV_AT_EPOCH><BSTAR>.96791996E-3</BSTAR><MEAN_MOTION_DOT>.7171E-4</MEAN_MOTION_DOT><MEAN_MOTION_DDOT>0</MEAN_MOTION_DDOT></tleParameters></data></segment></body></omm>

</ndm>
